[{"OBJECT_NAME":"STARLINK-5829","OBJECT_ID":"2023-058AG","EPOCH":"2026-03-09T22:14:50.967456","MEAN_MOTION":15.05648812,"ECCENTRICITY":0.00017544,"INCLINATION":97.6042,"RA_OF_ASC_NODE":71.4736,"ARG_OF_PERICENTER":79.4273,"MEAN_ANOMALY":280.7151,"EPHEMERIS_TYPE":0,"CLASSIFICATION_TYPE":"U","NORAD_CAT_ID":56347,"ELEMENT_SET_NO":999,"REV_AT_EPOCH":15823,"BSTAR":2.3016145e-5,"MEAN_MOTION_DOT":2.71e-6,"MEAN_MOTION_DDOT":0},{"OBJECT_NAME":"OBJECT H","OBJECT_ID":"2017-042H","EPOCH":"2026-03-09T21:54:40.929408","MEAN_MOTION":15.07257911,"ECCENTRICITY":0.00117342,"INCLINATION":97.4058,"RA_OF_ASC_NODE":233.05,"ARG_OF_PERICENTER":93.954,"MEAN_ANOMALY":266.303,"EPHEMERIS_TYPE":0,"CLASSIFICATION_TYPE":"U","NORAD_CAT_ID":42832,"ELEMENT_SET_NO":999,"REV_AT_EPOCH":47198,"BSTAR":0.00041037265,"MEAN_MOTION_DOT":6.138e-5,"MEAN_MOTION_DDOT":0}]
